[
    {
        "Altitude(m)": 716936.5471415339,
        "Argument of Periapsis(deg)": 0.007973084830638947,
        "Eccentricity": 0.0,
        "Inclination(deg)": 45.0,
        "Latitude(deg)": -42.858463471587456,
        "Longitude(deg)": -148.1745627482485,
        "Mean Anomaly(deg)": 253.52775165323652,
        "RAAN(deg)": 64.99247364097926,
        "Satellite Name": "Constellation 1 301",
        "Satellite Number": 301,
        "Semi-Major Axis(m)": 7083131.272910544,
        "Time(s)": 133
    },
    {
        "Altitude(m)": 716943.3653476693,
        "Argument of Periapsis(deg)": 0.008033032836884352,
        "Eccentricity": 0.0,
        "Inclination(deg)": 45.0,
        "Latitude(deg)": -42.874953216205185,
        "Longitude(deg)": -148.09935781669057,
        "Mean Anomaly(deg)": 253.58845279348645,
        "RAAN(deg)": 64.99241705181367,
        "Satellite Name": "Constellation 1 301",
        "Satellite Number": 301,
        "Semi-Major Axis(m)": 7083131.272910544,
        "Time(s)": 134
    },
    {
        "Altitude(m)": 716950.1606120752,
        "Argument of Periapsis(deg)": 0.008092980843129758,
        "Eccentricity": 0.0,
        "Inclination(deg)": 45.0,
        "Latitude(deg)": -42.89138794656083,
        "Longitude(deg)": -148.02411081096736,
        "Mean Anomaly(deg)": 253.64915393373636,
        "RAAN(deg)": 64.99236046264812,
        "Satellite Name": "Constellation 1 301",
        "Satellite Number": 301,
        "Semi-Major Axis(m)": 7083131.272910544,
        "Time(s)": 135
    },
    {
        "Altitude(m)": 716956.932909749,
        "Argument of Periapsis(deg)": 0.008152928849375162,
        "Eccentricity": 0.0,
        "Inclination(deg)": 45.0,
        "Latitude(deg)": -42.907767602620936,
        "Longitude(deg)": -147.94882182525964,
        "Mean Anomaly(deg)": 253.7098550739863,
        "RAAN(deg)": 64.99230387348256,
        "Satellite Name": "Constellation 1 301",
        "Satellite Number": 301,
        "Semi-Major Axis(m)": 7083131.272910544,
        "Time(s)": 136
    },
    {
        "Altitude(m)": 716963.6822157805,
        "Argument of Periapsis(deg)": 0.008212876855620568,
        "Eccentricity": 0.0,
        "Inclination(deg)": 45.0,
        "Latitude(deg)": -42.92409212447203,
        "Longitude(deg)": -147.8734909543063,
        "Mean Anomaly(deg)": 253.77055621423617,
        "RAAN(deg)": 64.99224728431697,
        "Satellite Name": "Constellation 1 301",
        "Satellite Number": 301,
        "Semi-Major Axis(m)": 7083131.272910544,
        "Time(s)": 137
    },
    {
        "Altitude(m)": 716970.4085053401,
        "Argument of Periapsis(deg)": 0.008272824861865974,
        "Eccentricity": 0.0,
        "Inclination(deg)": 45.0,
        "Latitude(deg)": -42.94036145232157,
        "Longitude(deg)": -147.79811829340414,
        "Mean Anomaly(deg)": 253.83125735448598,
        "RAAN(deg)": 64.99219069515141,
        "Satellite Name": "Constellation 1 301",
        "Satellite Number": 301,
        "Semi-Major Axis(m)": 7083131.272910544,
        "Time(s)": 138
    },
    {
        "Altitude(m)": 716977.1117536847,
        "Argument of Periapsis(deg)": 0.00833277286811138,
        "Eccentricity": 0.0,
        "Inclination(deg)": 45.0,
        "Latitude(deg)": -42.95657552649873,
        "Longitude(deg)": -147.7227039384081,
        "Mean Anomaly(deg)": 253.89195849473592,
        "RAAN(deg)": 64.99213410598584,
        "Satellite Name": "Constellation 1 301",
        "Satellite Number": 301,
        "Semi-Major Axis(m)": 7083131.272910544,
        "Time(s)": 139
    },
    {
        "Altitude(m)": 716983.7919361475,
        "Argument of Periapsis(deg)": 0.008392720874356788,
        "Eccentricity": 0.0,
        "Inclination(deg)": 45.0,
        "Latitude(deg)": -42.97273428745551,
        "Longitude(deg)": -147.64724798573076,
        "Mean Anomaly(deg)": 253.95265963498585,
        "RAAN(deg)": 64.99207751682027,
        "Satellite Name": "Constellation 1 301",
        "Satellite Number": 301,
        "Semi-Major Axis(m)": 7083131.272910544,
        "Time(s)": 140
    },
    {
        "Altitude(m)": 716990.4490281593,
        "Argument of Periapsis(deg)": 0.008452668880602192,
        "Eccentricity": 0.0,
        "Inclination(deg)": 45.0,
        "Latitude(deg)": -42.98883767576705,
        "Longitude(deg)": -147.57175070043976,
        "Mean Anomaly(deg)": 254.01336077523575,
        "RAAN(deg)": 64.9920209276547,
        "Satellite Name": "Constellation 1 301",
        "Satellite Number": 301,
        "Semi-Major Axis(m)": 7083131.272910544,
        "Time(s)": 141
    },
    {
        "Altitude(m)": 716997.0830052206,
        "Argument of Periapsis(deg)": 0.008512616886847598,
        "Eccentricity": 0.0,
        "Inclination(deg)": 45.0,
        "Latitude(deg)": -43.004885632133934,
        "Longitude(deg)": -147.496211843869,
        "Mean Anomaly(deg)": 254.07406191548563,
        "RAAN(deg)": 64.99196433848913,
        "Satellite Name": "Constellation 1 301",
        "Satellite Number": 301,
        "Semi-Major Axis(m)": 7083131.272910544,
        "Time(s)": 142
    },
    {
        "Altitude(m)": 717003.6938429228,
        "Argument of Periapsis(deg)": 0.008572564893093004,
        "Eccentricity": 0.0,
        "Inclination(deg)": 45.0,
        "Latitude(deg)": -43.02087809738121,
        "Longitude(deg)": -147.4206316822015,
        "Mean Anomaly(deg)": 254.13476305573553,
        "RAAN(deg)": 64.99190774932357,
        "Satellite Name": "Constellation 1 301",
        "Satellite Number": 301,
        "Semi-Major Axis(m)": 7083131.272910544,
        "Time(s)": 143
    },
    {
        "Altitude(m)": 717010.2815169396,
        "Argument of Periapsis(deg)": 0.008632512899338408,
        "Eccentricity": 0.0,
        "Inclination(deg)": 45.0,
        "Latitude(deg)": -43.036815012460586,
        "Longitude(deg)": -147.3450103140802,
        "Mean Anomaly(deg)": 254.1954641959855,
        "RAAN(deg)": 64.99185116015799,
        "Satellite Name": "Constellation 1 301",
        "Satellite Number": 301,
        "Semi-Major Axis(m)": 7083131.272910544,
        "Time(s)": 144
    },
    {
        "Altitude(m)": 717016.8460030281,
        "Argument of Periapsis(deg)": 0.008692460905583814,
        "Eccentricity": 0.0,
        "Inclination(deg)": 45.0,
        "Latitude(deg)": -43.052696318450785,
        "Longitude(deg)": -147.26934783870573,
        "Mean Anomaly(deg)": 254.25616533623537,
        "RAAN(deg)": 64.99179457099243,
        "Satellite Name": "Constellation 1 301",
        "Satellite Number": 301,
        "Semi-Major Axis(m)": 7083131.272910544,
        "Time(s)": 145
    },
    {
        "Altitude(m)": 717023.387277037,
        "Argument of Periapsis(deg)": 0.00875240891182922,
        "Eccentricity": 0.0,
        "Inclination(deg)": 45.0,
        "Latitude(deg)": -43.068521956558726,
        "Longitude(deg)": -147.19364435583577,
        "Mean Anomaly(deg)": 254.31686647648525,
        "RAAN(deg)": 64.99173798182684,
        "Satellite Name": "Constellation 1 301",
        "Satellite Number": 301,
        "Semi-Major Axis(m)": 7083131.272910544,
        "Time(s)": 146
    },
    {
        "Altitude(m)": 717029.9053148886,
        "Argument of Periapsis(deg)": 0.008812356918074627,
        "Eccentricity": 0.0,
        "Inclination(deg)": 45.0,
        "Latitude(deg)": -43.08429186812034,
        "Longitude(deg)": -147.11789996578474,
        "Mean Anomaly(deg)": 254.37756761673515,
        "RAAN(deg)": 64.99168139266129,
        "Satellite Name": "Constellation 1 301",
        "Satellite Number": 301,
        "Semi-Major Axis(m)": 7083131.272910544,
        "Time(s)": 147
    },
    {
        "Altitude(m)": 717036.4000925957,
        "Argument of Periapsis(deg)": 0.008872304924320031,
        "Eccentricity": 0.0,
        "Inclination(deg)": 45.0,
        "Latitude(deg)": -43.10000599460101,
        "Longitude(deg)": -147.0421149375212,
        "Mean Anomaly(deg)": 254.43826875698508,
        "RAAN(deg)": 64.99162480349572,
        "Satellite Name": "Constellation 1 301",
        "Satellite Number": 301,
        "Semi-Major Axis(m)": 7083131.272910544,
        "Time(s)": 148
    },
    {
        "Altitude(m)": 717042.8715862582,
        "Argument of Periapsis(deg)": 0.008932252930565437,
        "Eccentricity": 0.0,
        "Inclination(deg)": 45.0,
        "Latitude(deg)": -43.11566427759785,
        "Longitude(deg)": -146.96628903627857,
        "Mean Anomaly(deg)": 254.498969897235,
        "RAAN(deg)": 64.99156821433014,
        "Satellite Name": "Constellation 1 301",
        "Satellite Number": 301,
        "Semi-Major Axis(m)": 7083131.272910544,
        "Time(s)": 149
    },
    {
        "Altitude(m)": 717049.319772053,
        "Argument of Periapsis(deg)": 0.008992200936810843,
        "Eccentricity": 0.0,
        "Inclination(deg)": 45.0,
        "Latitude(deg)": -43.131266658838676,
        "Longitude(deg)": -146.89042253213861,
        "Mean Anomaly(deg)": 254.55967103748483,
        "RAAN(deg)": 64.99151162516458,
        "Satellite Name": "Constellation 1 301",
        "Satellite Number": 301,
        "Semi-Major Axis(m)": 7083131.272910544,
        "Time(s)": 150
    },
    {
        "Altitude(m)": 717055.744626248,
        "Argument of Periapsis(deg)": 0.009052148943056249,
        "Eccentricity": 0.0,
        "Inclination(deg)": 45.0,
        "Latitude(deg)": -43.146813080184394,
        "Longitude(deg)": -146.81451552764116,
        "Mean Anomaly(deg)": 254.6203721777347,
        "RAAN(deg)": 64.99145503599901,
        "Satellite Name": "Constellation 1 301",
        "Satellite Number": 301,
        "Semi-Major Axis(m)": 7083131.272910544,
        "Time(s)": 151
    }
]